From: horizons@ssd.jpl.nasa.gov (Horizons Ephemeris System)
Subject: [Horizons] SMALL BODY #C(500@10)_T(319P/Catalina-McNaught) (1/1)
Date: February 4, 2021 at 3:25:11 PM PST

Automated mail xmit by PORT_LOGIN, PID= 15228 Thu Feb  4 15:25:11 2021
++++++++++++++++++++++++++++++++ (part 1 of 1)  +++++++++++++++++++++++++++++++
*******************************************************************************
Ephemeris / PORT_LOGIN Thu Feb  4 15:24:54 2021 Pasadena, USA    / Horizons
*******************************************************************************
Target body name: 319P/Catalina-McNaught          {source: JPL#33}
Center body name: Sun (10)                        {source: DE431}
Center-site name: BODY CENTER
*******************************************************************************
Start time      : A.D. 2035-Jan-01 00:00:00.0000 TDB
Stop  time      : A.D. 2042-Jan-01 00:00:00.0000 TDB
Step-size       : 20160 minutes
*******************************************************************************
Center geodetic : 0.00000000,0.00000000,0.0000000 {E-lon(deg),Lat(deg),Alt(km)}
Center cylindric: 0.00000000,0.00000000,0.0000000 {E-lon(deg),Dxy(km),Dz(km)}
Center radii    : 696000.0 x 696000.0 x 696000.0 k{Equator, meridian, pole}    
Small perturbers: Yes                             {source: SB431-N16}
Output units    : AU-D
Output type     : GEOMETRIC cartesian states
Output format   : 3 (position, velocity, LT, range, range-rate)
Reference frame : Ecliptic of J2000.0
*******************************************************************************
Initial IAU76/J2000 heliocentric ecliptic osculating elements (au, days, deg.):
 EPOCH=  2456558.5 ! 2013-Sep-23.0000000 (TDB)    RMSW= n.a.                  
  EC= .6649928582060213   QR= 1.19698516661724    TP= 2457205.4243635242      
  OM= 111.3665624087181   W= 203.6802528999902    IN= 15.07420589928586       
 Equivalent ICRF heliocentric equatorial cartesian coordinates (au, au/d):
  X=-4.562791970753850E+00  Y= 1.124616795877340E+00  Z= 1.558325286574398E+00
 VX= 1.791150483323547E-03 VY=-5.357181993793932E-03 VZ=-2.193291349004412E-03
Comet physical (GM= km^3/s^2; RAD= km):                                        
  GM= n.a.                RAD= n.a.                                           
  M1=  17.      M2=  n.a.     k1=  9.     k2= n.a.     PHCOF= n.a.            
*******************************************************************************
           JDTDB,            Calendar Date (TDB),                      X,                      Y,                      Z,                     VX,                     VY,                     VZ,                     LT,                     RG,                     RR,
**************************************************************************************************************************************************************************************************************************************************************************
$$SOE
2464328.500000000, A.D. 2035-Jan-01 00:00:00.0000, -2.443076258529300E+00, -9.131345043006798E-01,  6.990713848960892E-01,  9.930264760058802E-03, -5.754564373188612E-03, -1.942225482207511E-03,  1.559511554607457E-02,  2.700210552737417E+00, -7.541433028922547E-03,
2464342.500000000, A.D. 2035-Jan-15 00:00:00.0000, -2.300380615500375E+00, -9.922570159135515E-01,  6.708227815477454E-01,  1.046019655478898E-02, -5.541407986440695E-03, -2.095322969917425E-03,  1.497890245637533E-02,  2.593516563672383E+00, -7.699786112420099E-03,
2464356.500000000, A.D. 2035-Jan-29 00:00:00.0000, -2.150035149253221E+00, -1.068070322142585E+00,  6.403421114538831E-01,  1.102346380449372E-02, -5.280264306966654E-03, -2.261331569192486E-03,  1.435011576614306E-02,  2.484645523161665E+00, -7.851891425434103E-03,
2464370.500000000, A.D. 2035-Feb-12 00:00:00.0000, -1.991558565983231E+00, -1.139831856434887E+00,  6.074382510457795E-01,  1.162208255282546E-02, -4.960624314928505E-03, -2.441754062115625E-03,  1.370941078575120E-02,  2.373710894679160E+00, -7.993810577434696E-03,
2464384.500000000, A.D. 2035-Feb-26 00:00:00.0000, -1.824445129630083E+00, -1.206633497750675E+00,  5.718982107908117E-01,  1.225745727547784E-02, -4.569229868419526E-03, -2.638203766194542E-03,  1.305782236981956E-02,  2.260891857747886E+00, -8.120006430388002E-03,
2464398.500000000, A.D. 2035-Mar-12 00:00:00.0000, -1.648176968351170E+00, -1.267357712960789E+00,  5.334860469968143E-01,  1.292978788622836E-02, -4.089275687038364E-03, -2.852328073558962E-03,  1.239691870415026E-02,  2.146459935322517E+00, -8.222692842112373E-03,
2464412.500000000, A.D. 2035-Mar-26 00:00:00.0000, -1.462247434400263E+00, -1.320621331424959E+00,  4.919433855142319E-01,  1.363705771048438E-02, -3.499444861760583E-03, -3.085647142311261E-03,  1.172901920089518E-02,  2.030816721168109E+00, -8.290888411310636E-03,
2464426.500000000, A.D. 2035-Apr-09 00:00:00.0000, -1.266202821361993E+00, -1.364704816869220E+00,  4.469931580285151E-01,  1.437337133995584E-02, -2.772815164138854E-03, -3.339241714873603E-03,  1.105750354249246E-02,  1.914547389158969E+00, -8.309090400153266E-03,
2464440.500000000, A.D. 2035-Apr-23 00:00:00.0000, -1.059714021838128E+00, -1.397466223213694E+00,  3.983493906798934E-01,  1.512626437544547E-02, -1.875811813907108E-03, -3.613176811512568E-03,  1.038724666220322E-02,  1.798496007823907E+00, -8.255474308724850E-03,
2464454.500000000, A.D. 2035-May-07 00:00:00.0000, -8.426961461373702E-01, -1.416243381373311E+00,  3.457379260273800E-01,  1.587243749101752E-02, -7.677045677134304E-04, -3.905479664542920E-03,  9.725219731724756E-03,  1.683869598125757E+00, -8.099592655603704E-03,
2464468.500000000, A.D. 2035-May-21 00:00:00.0000, -6.155021925681162E-01, -1.417759439379163E+00,  2.889359741184888E-01,  1.657137982479422E-02,  5.981345986764042E-04, -4.210427129257482E-03,  9.081290982677567E-03,  1.572376791403599E+00, -7.799832406856957E-03,
2464482.500000000, A.D. 2035-Jun-04 00:00:00.0000, -3.792218280054420E-01, -1.398070793862679E+00,  2.278420314473391E-01,  1.715678657516575E-02,  2.268917747165804E-03, -4.515885965223748E-03,  8.469208601820613E-03,  1.466398012403747E+00, -7.301731279812896E-03,
2464496.500000000, A.D. 2035-Jun-18 00:00:00.0000, -1.361080999886636E-01, -1.352640315484908E+00,  1.625898044135526E-01,  1.752743046818895E-02,  4.279056122612437E-03, -4.799752576997873E-03,  7.907603567904528E-03,  1.369159115098342E+00, -6.539809592883674E-03,
2464510.500000000, A.D. 2035-Jul-02 00:00:00.0000,  1.098971633358043E-01, -1.276682287307809E+00,  9.371269694124985E-02,  1.754381248566344E-02,  6.624107499716780E-03, -5.026635597346334E-03,  7.420534471656393E-03,  1.284825715341485E+00, -5.448151436126343E-03,
2464524.500000000, A.D. 2035-Jul-16 00:00:00.0000,  3.527070928313422E-01, -1.165964859848763E+00,  2.233453477466091E-02,  1.704425893298412E-02,  9.222561736313297E-03, -5.148246970524640E-03,  7.036599101093617E-03,  1.218349366634744E+00, -3.986160060981361E-03,
2464538.500000000, A.D. 2035-Jul-30 00:00:00.0000,  5.840940281417117E-01, -1.018142714188099E+00, -4.970451195513386E-02,  1.589653521345648E-02,  1.188346539667040E-02, -5.113247183249268E-03,  6.785314708003245E-03,  1.174840822696342E+00, -2.178883233711279E-03,
2464552.500000000, A.D. 2035-Aug-13 00:00:00.0000,  7.946566727922856E-01, -8.342678397265350E-01, -1.199467123261036E-01,  1.407906002601295E-02,  1.432124455492829E-02, -4.889081493832579E-03,  6.690307360916875E-03,  1.158390810483718E+00, -1.496088432962700E-04,
2464566.500000000, A.D. 2035-Aug-27 00:00:00.0000,  9.758355808183129E-01, -6.195549731016462E-01, -1.857504575852608E-01,  1.173649712007075E-02,  1.624753007383677E-02, -4.484703938400714E-03,  6.761567507429364E-03,  1.170729122375936E+00,  1.895988740982349E-03,
2464580.500000000, A.D. 2035-Sep-10 00:00:00.0000,  1.122100636473300E+00, -3.825414217523810E-01, -2.449190199554783E-01,  9.141828246068498E-03,  1.749336491514334E-02, -3.952549233223690E-03,  6.991558013743897E-03,  1.210550744110329E+00,  3.745542360911214E-03,
2464594.500000000, A.D. 2035-Sep-24 00:00:00.0000,  1.231978225085892E+00, -1.329215092440516E-01, -2.961629001478167E-01,  6.580697431183496E-03,  1.806188815342394E-02, -3.364511836664918E-03,  7.358180213569751E-03,  1.274029410229398E+00,  5.261186309559213E-03,
2464608.500000000, A.D. 2035-Oct-08 00:00:00.0000,  1.307469346041999E+00,  1.206198770824616E-01, -3.391592544930968E-01,  4.253403291474092E-03,  1.808053844330448E-02, -2.782887497056438E-03,  7.832280568773451E-03,  1.356117342081869E+00,  6.404983200110182E-03,
2464622.500000000, A.D. 2035-Oct-22 00:00:00.0000,  1.352603613517221E+00,  3.715510820388155E-01, -3.742980393674041E-01,  2.251282461353533E-03,  1.771643787804069E-02, -2.246429540513479E-03,  8.384822970430996E-03,  1.451787093253808E+00,  7.210760225773185E-03,
2464636.500000000, A.D. 2035-Nov-05 00:00:00.0000,  1.372079590639312E+00,  6.155929873965124E-01, -4.023506545149603E-01,  5.851696446154571E-04,  1.711798580170033E-02, -1.771938356867127E-03,  8.990987364971201E-03,  1.556741204686675E+00,  7.742810343604921E-03,
2464650.500000000, A.D. 2035-Nov-19 00:00:00.0000,  1.370412256817970E+00,  8.502767840121583E-01, -4.242143168520039E-01, -7.762631991767614E-04,  1.639443596181429E-02, -1.361932093486275E-03,  9.631372798226805E-03,  1.667620505297651E+00,  8.067638130218321E-03,
2464664.500000000, A.D. 2035-Dec-03 00:00:00.0000,  1.351550616479848E+00,  1.074394172797344E+00, -4.407640229913272E-01, -1.879161726995856E-03,  1.561788362682855E-02, -1.011686700889026E-03,  1.029158608284478E-02,  1.781932891949483E+00,  8.241553953094701E-03,
2464678.500000000, A.D. 2035-Dec-17 00:00:00.0000,  1.318784230614919E+00,  1.287539304946408E+00, -4.527856345644745E-01, -2.770036645439556E-03,  1.483252682615140E-02, -7.137385953237534E-04,  1.096126453607632E-02,  1.897884121744112E+00,  8.307963081759495E-03,
